1 38833U 12053A   19298.24252504 -.00000029  00000-0  00000+0 0  9990
2 38833  53.7272 243.0666 0087937  33.9886 326.5510  2.00563107 51654
1 38833U 12053A   19299.23967792 -.00000030  00000-0  00000+0 0  9994
2 38833  53.7268 243.0255 0088018  34.0114 326.5274  2.00563124 51678
1 38833U 12053A   19299.23967806 -.00000030  00000-0  00000-0 0  9991
2 38833  53.7268 243.0255 0088029  34.0106 326.5283  2.00563128 50898
1 38833U 12053A   19300.23683446 -.00000028  00000-0  00000+0 0  9995
2 38833  53.7264 242.9844 0088083  34.0337 326.5067  2.00563141 51696
1 38833U 12053A   19301.23399420 -.00000022  00000-0  00000+0 0  9996
2 38833  53.7260 242.9433 0088163  34.0567 326.4879  2.00563164 51718
1 38833U 12053A   19301.73257499 -.00000018  00000-0  00000+0 0  9995
2 38833  53.7258 242.9228 0088195  34.0671 326.4802  2.00563176 51728
1 38833U 12053A   19302.72973748 -.00000012  00000-0  00000+0 0  9991
2 38833  53.7254 242.8816 0088256  34.0854 326.4680  2.00563203 51744
1 38833U 12053A   19304.22548126 -.00000008  00000-0  00000+0 0  9991
2 38833  53.7248 242.8200 0088359  34.1169 326.4457  2.00563246 51770
1 38833U 12053A   19305.22264187 -.00000010  00000-0  00000+0 0  9997
2 38833  53.7243 242.7789 0088431  34.1401 326.4274  2.00563276 51798
1 38833U 12053A   19308.21410982 -.00000036  00000-0  00000+0 0  9993
2 38833  53.7230 242.6557 0088647  34.2150 326.3579  2.00563362 51857
1 38833U 12053A   19309.21126148 -.00000043  00000-0  00000+0 0  9990
2 38833  53.7225 242.6146 0088689  34.2270 326.3450  2.00563398 51873
1 38833U 12053A   19309.21126148 -.00000043  00000-0  00000-0 0  9991
2 38833  53.7225 242.6146 0088689  34.2270 326.3450  2.00563398 51097
1 38833U 12053A   19310.70699007 -.00000048  00000-0  00000+0 0  9990
2 38833  53.7220 242.5529 0088781  34.2668 326.3044  2.00563425 51900
1 38833U 12053A   19313.19987660 -.00000035  00000-0  00000+0 0  9997
2 38833  53.7209 242.4502 0088941  34.3250 326.2491  2.00563466 51958
1 38833U 12053A   19314.19703470 -.00000024  00000-0  00000+0 0  9991
2 38833  53.7205 242.4092 0089003  34.3480 326.2300  2.00563475 51974
1 38833U 12053A   19317.18852041  .00000008  00000-0  00000+0 0  9993
2 38833  53.7191 242.2859 0089229  34.4222 326.1752  2.00563465 52039
1 38833U 12053A   19319.68142408  .00000017  00000-0  00000+0 0  9999
2 38833  53.7181 242.1832 0089378  34.4786 326.1346  2.00563447 52082
1 38833U 12053A   19320.18000307  .00000016  00000-0  00000+0 0  9996
2 38833  53.7177 242.1626 0089411  34.4887 326.1264  2.00563446 52097
1 38833U 12053A   19321.17715907  .00000011  00000-0  00000+0 0  9990
2 38833  53.7173 242.1216 0089496  34.5136 326.1039  2.00563434 52119
1 38833U 12053A   19323.17146106 -.00000008  00000-0  00000-0 0  9999
2 38833  53.7168 242.0393 0089621  34.5576 326.0574  2.00563432 51374
1 38833U 12053A   19323.67003527 -.00000013  00000-0  00000+0 0  9998
2 38833  53.7166 242.0187 0089665  34.5704 326.0432  2.00563435 52168
1 38833U 12053A   19324.16860961 -.00000017  00000-0  00000+0 0  9990
2 38833  53.7164 241.9982 0089702  34.5830 326.0292  2.00563434 52173
1 38833U 12053A   19324.16860961 -.00000017  00000-0  00000-0 0  9991
2 38833  53.7164 241.9982 0089702  34.5830 326.0292  2.00563434 52173
1 38833U 12053A   19325.16575866 -.00000023  00000-0  00000-0 0  9996
2 38833  53.7160 241.9571 0089777  34.6085 326.0013  2.00563443 51415
1 38833U 12053A   19326.16290995 -.00000026  00000-0  00000+0 0  9996
2 38833  53.7156 241.9159 0089838  34.6334 325.9754  2.00563455 52219
1 38833U 12053A   19328.15722214 -.00000017  00000-0  00000+0 0  9991
2 38833  53.7148 241.8337 0089983  34.6861 325.9282  2.00563492 52254
1 38833U 12053A   19329.15438268 -.00000008  00000-0  00000+0 0  9995
2 38833  53.7144 241.7926 0090053  34.7126 325.9076  2.00563515 52277
1 38833U 12053A   19330.15154431 -.00000001  00000-0  00000+0 0  9997
2 38833  53.7140 241.7515 0090114  34.7369 325.8901  2.00563542 52292
1 38833U 12053A   19331.14870519  .00000003  00000-0  00000+0 0  9990
2 38833  53.7136 241.7103 0090165  34.7524 325.8811  2.00563580 52314
1 38833U 12053A   19331.64728519  .00000004  00000-0  00000-0 0  9999
2 38833  53.7134 241.6898 0090175  34.7631 325.8732  2.00563583 51541
1 38833U 12053A   19331.64728527  .00000004  00000-0  00000+0 0  9997
2 38833  53.7134 241.6898 0090189  34.7649 325.8716  2.00563590 52322
1 38833U 12053A   19332.14586490  .00000003  00000-0  00000+0 0  9993
2 38833  53.7132 241.6692 0090221  34.7779 325.8613  2.00563607 52339
1 38833U 12053A   19332.14586490  .00000003  00000-0  00000-0 0  9994
2 38833  53.7132 241.6692 0090221  34.7779 325.8613  2.00563607 51552
1 38833U 12053A   19334.14017752 -.00000009  00000-0  00000+0 0  9992
2 38833  53.7124 241.5870 0090353  34.8319 325.8136  2.00563668 52375
1 38833U 12053A   19335.13733029 -.00000017  00000-0  00000+0 0  9993
2 38833  53.7120 241.5459 0090414  34.8589 325.7875  2.00563697 52394
1 38833U 12053A   19336.13448148 -.00000025  00000-0  00000+0 0  9998
2 38833  53.7116 241.5047 0090483  34.8906 325.7556  2.00563728 52415
1 38833U 12053A   19337.13163206 -.00000030  00000-0  00000+0 0  9994
2 38833  53.7112 241.4636 0090546  34.9207 325.7249  2.00563752 52437
1 38833U 12053A   19337.13163208 -.00000030  00000-0  00000-0 0  9997
2 38833  53.7112 241.4636 0090548  34.9206 325.7250  2.00563753 51654
1 38833U 12053A   19338.12878281 -.00000030  00000-0  00000+0 0  9990
2 38833  53.7108 241.4225 0090604  34.9475 325.6976  2.00563775 52451
1 38833U 12053A   19339.12593448 -.00000026  00000-0  00000+0 0  9995
2 38833  53.7104 241.3814 0090659  34.9726 325.6729  2.00563796 52470
1 38833U 12053A   19340.12308807 -.00000018  00000-0  00000+0 0  9991
2 38833  53.7101 241.3403 0090716  34.9998 325.6472  2.00563808 52497
1 38833U 12053A   19341.12024352 -.00000006  00000-0  00000+0 0  9999
2 38833  53.7097 241.2992 0090781  35.0243 325.6258  2.00563820 52519
1 38833U 12053A   19342.11740140  .00000007  00000-0  00000+0 0  9999
2 38833  53.7093 241.2581 0090850  35.0550 325.5998  2.00563821 52530
1 38833U 12053A   19343.11456078  .00000020  00000-0  00000+0 0  9999
2 38833  53.7089 241.2169 0090915  35.0834 325.5773  2.00563821 52557
1 38833U 12053A   19345.10888213  .00000040  00000-0  00000+0 0  9992
2 38833  53.7082 241.1347 0091049  35.1432 325.5312  2.00563807 52598
1 38833U 12053A   19345.10888220  .00000040  00000-0  00000+0 0  9990
2 38833  53.7082 241.1347 0091057  35.1443 325.5303  2.00563804 52596
1 38833U 12053A   19345.10888220  .00000040  00000-0  00000-0 0  9991
2 38833  53.7082 241.1347 0091057  35.1443 325.5303  2.00563804 51810
1 38833U 12053A   19347.60177561  .00000046  00000-0  00000-0 0  9993
2 38833  53.7072 241.0319 0091190  35.1991 325.4871  2.00563785 51865
1 38833U 12053A   19347.60177565  .00000046  00000-0  00000+0 0  9996
2 38833  53.7072 241.0319 0091179  35.2000 325.4862  2.00563785 52641
1 38833U 12053A   19348.10035241  .00000044  00000-0  00000+0 0  9994
2 38833  53.7071 241.0113 0091218  35.2139 325.4732  2.00563781 52652
1 38833U 12053A   19348.10035270  .00000044  00000-0  00000-0 0  9997
2 38833  53.7071 241.0113 0091233  35.2174 325.4698  2.00563776 51876
1 38833U 12053A   19349.09750340  .00000038  00000-0  00000+0 0  9990
2 38833  53.7067 240.9702 0091290  35.2426 325.4444  2.00563771 52679
1 38833U 12053A   19349.09750340  .00000038  00000-0  00000-0 0  9991
2 38833  53.7067 240.9702 0091290  35.2426 325.4444  2.00563771 52679
1 38833U 12053A   19350.09465089  .00000029  00000-0  00000-0 0  9996
2 38833  53.7063 240.9290 0091359  35.2663 325.4184  2.00563766 51917
1 38833U 12053A   19351.09179645  .00000021  00000-0  00000+0 0  9998
2 38833  53.7060 240.8878 0091415  35.2880 325.3928  2.00563767 52714
1 38833U 12053A   19352.08894196  .00000014  00000-0  00000+0 0  9995
2 38833  53.7056 240.8467 0091479  35.3137 325.3634  2.00563771 52730
1 38833U 12053A   19353.08608853  .00000011  00000-0  00000+0 0  9996
2 38833  53.7053 240.8055 0091526  35.3315 325.3427  2.00563783 52756
1 38833U 12053A   19354.08323829  .00000013  00000-0  00000+0 0  9996
2 38833  53.7050 240.7643 0091584  35.3556 325.3179  2.00563797 52777
1 38833U 12053A   19355.08039145  .00000019  00000-0  00000+0 0  9998
2 38833  53.7046 240.7232 0091638  35.3815 325.2938  2.00563819 52793
1 38833U 12053A   19355.57896918  .00000023  00000-0  00000+0 0  9996
2 38833  53.7045 240.7026 0091670  35.3943 325.2827  2.00563829 52801
1 38833U 12053A   19356.57612604  .00000031  00000-0  00000-0 0  9995
2 38833  53.7042 240.6614 0091718  35.4150 325.2666  2.00563851 52046
1 38833U 12053A   19357.07470542  .00000035  00000-0  00000+0 0  9997
2 38833  53.7040 240.6409 0091755  35.4328 325.2516  2.00563860 52835
1 38833U 12053A   19357.57328382  .00000039  00000-0  00000+0 0  9990
2 38833  53.7038 240.6203 0091754  35.4349 325.2519  2.00563870 52841
1 38833U 12053A   19357.57328382  .00000039  00000-0  00000-0 0  9991
2 38833  53.7038 240.6203 0091754  35.4349 325.2519  2.00563870 52065
1 38833U 12053A   19359.06901953  .00000043  00000-0  00000+0 0  9992
2 38833  53.7034 240.5585 0091844  35.4727 325.2214  2.00563916 52875
1 38833U 12053A   19361.06332571  .00000034  00000-0  00000+0 0  9999
2 38833  53.7027 240.4763 0091948  35.5187 325.1795  2.00563980 52919
1 38833U 12053A   19362.06047572  .00000025  00000-0  00000+0 0  9994
2 38833  53.7023 240.4351 0092014  35.5525 325.1454  2.00564008 52935
1 38833U 12053A   19363.05762327  .00000017  00000-0  00000-0 0  9998
2 38833  53.7020 240.3939 0092063  35.5801 325.1160  2.00564035 52174
1 38833U 12053A   19364.05476970  .00000011  00000-0  00000+0 0  9998
2 38833  53.7017 240.3528 0092108  35.6055 325.0881  2.00564063 52974
1 38833U 12053A   19364.05476970  .00000011  00000-0  00000-0 0  9999
2 38833  53.7017 240.3528 0092108  35.6055 325.0881  2.00564063 52974
